[{"OBJECT_NAME":"GCOM-C (SHIKISAI)","OBJECT_ID":"2017-082A","EPOCH":"2026-03-09T22:50:15.762048","MEAN_MOTION":14.27292109,"ECCENTRICITY":0.00011018,"INCLINATION":98.6348,"RA_OF_ASC_NODE":143.8758,"ARG_OF_PERICENTER":107.3468,"MEAN_ANOMALY":252.7834,"EPHEMERIS_TYPE":0,"CLASSIFICATION_TYPE":"U","NORAD_CAT_ID":43065,"ELEMENT_SET_NO":999,"REV_AT_EPOCH":42778,"BSTAR":9.0011429e-5,"MEAN_MOTION_DOT":1.76e-6,"MEAN_MOTION_DDOT":0},{"OBJECT_NAME":"CZ-6A DEB","OBJECT_ID":"2024-140RY","EPOCH":"2026-03-09T14:13:54.430176","MEAN_MOTION":14.2522355,"ECCENTRICITY":0.0038884,"INCLINATION":88.9499,"RA_OF_ASC_NODE":282.3029,"ARG_OF_PERICENTER":182.6958,"MEAN_ANOMALY":177.4032,"EPHEMERIS_TYPE":0,"CLASSIFICATION_TYPE":"U","NORAD_CAT_ID":61178,"ELEMENT_SET_NO":999,"REV_AT_EPOCH":8030,"BSTAR":0.0005794,"MEAN_MOTION_DOT":1.386e-5,"MEAN_MOTION_DDOT":0}]
